KUIPER-00035            
1 63748U 25088AA  25223.25002315  .00010739  00000+0  12012-2 0  9990
2 63748  51.8950 324.8002 0006599 105.3041 340.2498 14.87343188  4360
KUIPER-00037            
1 63749U 25088AB  25223.58334491 -.00025947  00000+0 -27919-2 0  9991
2 63749  51.8957 322.3740 0007631  50.9521 350.2665 14.87860421 17192
KUIPER-00038            
1 63750U 25088AC  25223.58334491 -.00857118  00000+0 -36923-1 0  9990
2 63750  51.8789 312.8928 0005199 106.4639 320.3400 15.24858989 16320
KUIPER-00039            
1 64500U 25134A   25223.35051974  .00024797  00000+0  71804-3 0  9999
2 64500  51.8683  95.4054 0007403 286.8961  73.1213 15.35410498  8295
KUIPER-00040            
1 64501U 25134B   25222.92008484  .00017092  00000+0  91709-3 0  9996
2 64501  51.8780  99.9244 0013183 293.2457  66.7132 15.14972520  8652
KUIPER-00041            
1 64502U 25134C   25223.50002315 -.01324731  00000+0 -88561-1 0  9993
2 64502  51.8792  97.6290 0009179 291.8241 106.3192 15.09441282  8272
KUIPER-00042            
1 64503U 25134D   25223.50002315 -.00296813  00000+0 -15637-1 0  9996
2 64503  51.8813  96.0886 0010826 294.3219 201.4312 15.16458196  8298
KUIPER-00043            
1 64504U 25134E   25223.50002315 -.00420621  00000+0 -13529-1 0  9991
2 64504  51.8694  94.7610 0008672 291.2530 143.1258 15.33406064  8695
